CCSDS_OMM_VERS = 2.0
CREATION_DATE  = 
ORIGINATOR     = 

OBJECT_NAME    = STARLINK-36905
OBJECT_ID      = 2026-050K
CENTER_NAME    = EARTH
REF_FRAME      = TEME
TIME_SYSTEM    = UTC
MEAN_ELEMENT_THEORY = SGP/SGP4

EPOCH          = 2026-04-05T11:41:37.803840
MEAN_MOTION    = 15.80977935
ECCENTRICITY   = .0001748
INCLINATION    = 53.1563
RA_OF_ASC_NODE = 147.4642
ARG_OF_PERICENTER = 33.4769
MEAN_ANOMALY   = 326.6364

EPHEMERIS_TYPE = 0
CLASSIFICATION_TYPE = U
NORAD_CAT_ID   = 68176
ELEMENT_SET_NO = 999
REV_AT_EPOCH   = 471
BSTAR          = .10562E-2
MEAN_MOTION_DOT = .214041E-2
MEAN_MOTION_DDOT = 0

CCSDS_OMM_VERS = 2.0
CREATION_DATE  = 
ORIGINATOR     = 

OBJECT_NAME    = STARLINK-36668
OBJECT_ID      = 2026-050L
CENTER_NAME    = EARTH
REF_FRAME      = TEME
TIME_SYSTEM    = UTC
MEAN_ELEMENT_THEORY = SGP/SGP4

EPOCH          = 2026-04-05T12:00:02.998944
MEAN_MOTION    = 15.77099470
ECCENTRICITY   = .0001024
INCLINATION    = 53.1588
RA_OF_ASC_NODE = 147.4031
ARG_OF_PERICENTER = 57.5026
MEAN_ANOMALY   = 13.6760

EPHEMERIS_TYPE = 0
CLASSIFICATION_TYPE = U
NORAD_CAT_ID   = 68177
ELEMENT_SET_NO = 999
REV_AT_EPOCH   = 475
BSTAR          = -.13163E-1
MEAN_MOTION_DOT = -.1906725E-1
MEAN_MOTION_DDOT = 0

CCSDS_OMM_VERS = 2.0
CREATION_DATE  = 
ORIGINATOR     = 

OBJECT_NAME    = STARLINK-36677
OBJECT_ID      = 2026-050M
CENTER_NAME    = EARTH
REF_FRAME      = TEME
TIME_SYSTEM    = UTC
MEAN_ELEMENT_THEORY = SGP/SGP4

EPOCH          = 2026-04-05T11:39:28.221984
MEAN_MOTION    = 15.80991050
ECCENTRICITY   = .0001666
INCLINATION    = 53.1568
RA_OF_ASC_NODE = 147.4532
ARG_OF_PERICENTER = 82.1391
MEAN_ANOMALY   = 277.9821

EPHEMERIS_TYPE = 0
CLASSIFICATION_TYPE = U
NORAD_CAT_ID   = 68178
ELEMENT_SET_NO = 999
REV_AT_EPOCH   = 471
BSTAR          = .137E-2
MEAN_MOTION_DOT = .280169E-2
MEAN_MOTION_DDOT = 0

CCSDS_OMM_VERS = 2.0
CREATION_DATE  = 
ORIGINATOR     = 

OBJECT_NAME    = STARLINK-37052
OBJECT_ID      = 2026-050N
CENTER_NAME    = EARTH
REF_FRAME      = TEME
TIME_SYSTEM    = UTC
MEAN_ELEMENT_THEORY = SGP/SGP4

EPOCH          = 2026-04-05T11:38:23.517888
MEAN_MOTION    = 15.80964837
ECCENTRICITY   = .000168
INCLINATION    = 53.1565
RA_OF_ASC_NODE = 147.4487
ARG_OF_PERICENTER = 52.6920
MEAN_ANOMALY   = 307.4256

EPHEMERIS_TYPE = 0
CLASSIFICATION_TYPE = U
NORAD_CAT_ID   = 68179
ELEMENT_SET_NO = 999
REV_AT_EPOCH   = 471
BSTAR          = .11184E-2
MEAN_MOTION_DOT = .226896E-2
MEAN_MOTION_DDOT = 0

CCSDS_OMM_VERS = 2.0
CREATION_DATE  = 
ORIGINATOR     = 

OBJECT_NAME    = STARLINK-37035
OBJECT_ID      = 2026-050P
CENTER_NAME    = EARTH
REF_FRAME      = TEME
TIME_SYSTEM    = UTC
MEAN_ELEMENT_THEORY = SGP/SGP4

EPOCH          = 2026-04-05T11:37:18.664320
MEAN_MOTION    = 15.80984203
ECCENTRICITY   = .0001195
INCLINATION    = 53.1564
RA_OF_ASC_NODE = 147.4437
ARG_OF_PERICENTER = 72.2715
MEAN_ANOMALY   = 287.8438

EPHEMERIS_TYPE = 0
CLASSIFICATION_TYPE = U
NORAD_CAT_ID   = 68180
ELEMENT_SET_NO = 999
REV_AT_EPOCH   = 471
BSTAR          = .13825E-2
MEAN_MOTION_DOT = .282736E-2
MEAN_MOTION_DDOT = 0

CCSDS_OMM_VERS = 2.0
CREATION_DATE  = 
ORIGINATOR     = 

OBJECT_NAME    = STARLINK-37032
OBJECT_ID      = 2026-050Q
CENTER_NAME    = EARTH
REF_FRAME      = TEME
TIME_SYSTEM    = UTC
MEAN_ELEMENT_THEORY = SGP/SGP4

EPOCH          = 2026-04-05T11:36:13.747680
MEAN_MOTION    = 15.80981783
ECCENTRICITY   = .0001222
INCLINATION    = 53.1565
RA_OF_ASC_NODE = 147.4386
ARG_OF_PERICENTER = 95.7616
MEAN_ANOMALY   = 264.3546

EPHEMERIS_TYPE = 0
CLASSIFICATION_TYPE = U
NORAD_CAT_ID   = 68181
ELEMENT_SET_NO = 999
REV_AT_EPOCH   = 471
BSTAR          = .12622E-2
MEAN_MOTION_DOT = .25728E-2
MEAN_MOTION_DDOT = 0

CCSDS_OMM_VERS = 2.0
CREATION_DATE  = 
ORIGINATOR     = 

OBJECT_NAME    = STARLINK-37082
OBJECT_ID      = 2026-050R
CENTER_NAME    = EARTH
REF_FRAME      = TEME
TIME_SYSTEM    = UTC
MEAN_ELEMENT_THEORY = SGP/SGP4

EPOCH          = 2026-04-05T11:35:08.947680
MEAN_MOTION    = 15.80987961
ECCENTRICITY   = .0001611
INCLINATION    = 53.1567
RA_OF_ASC_NODE = 147.4334
ARG_OF_PERICENTER = 85.1166
MEAN_ANOMALY   = 275.0040

EPHEMERIS_TYPE = 0
CLASSIFICATION_TYPE = U
NORAD_CAT_ID   = 68182
ELEMENT_SET_NO = 999
REV_AT_EPOCH   = 471
BSTAR          = .12546E-2
MEAN_MOTION_DOT = .25574E-2
MEAN_MOTION_DDOT = 0

CCSDS_OMM_VERS = 2.0
CREATION_DATE  = 
ORIGINATOR     = 

OBJECT_NAME    = STARLINK-37102
OBJECT_ID      = 2026-050S
CENTER_NAME    = EARTH
REF_FRAME      = TEME
TIME_SYSTEM    = UTC
MEAN_ELEMENT_THEORY = SGP/SGP4

EPOCH          = 2026-04-05T11:34:04.291104
MEAN_MOTION    = 15.80951186
ECCENTRICITY   = .0001999
INCLINATION    = 53.1566
RA_OF_ASC_NODE = 147.4284
ARG_OF_PERICENTER = 63.2605
MEAN_ANOMALY   = 296.8622

EPHEMERIS_TYPE = 0
CLASSIFICATION_TYPE = U
NORAD_CAT_ID   = 68183
ELEMENT_SET_NO = 999
REV_AT_EPOCH   = 471
BSTAR          = .82004E-3
MEAN_MOTION_DOT = .164877E-2
MEAN_MOTION_DDOT = 0

CCSDS_OMM_VERS = 2.0
CREATION_DATE  = 
ORIGINATOR     = 

OBJECT_NAME    = STARLINK-36964
OBJECT_ID      = 2026-050T
CENTER_NAME    = EARTH
REF_FRAME      = TEME
TIME_SYSTEM    = UTC
MEAN_ELEMENT_THEORY = SGP/SGP4

EPOCH          = 2026-04-05T11:32:59.389152
MEAN_MOTION    = 15.80941698
ECCENTRICITY   = .0001308
INCLINATION    = 53.1566
RA_OF_ASC_NODE = 147.4233
ARG_OF_PERICENTER = 86.7812
MEAN_ANOMALY   = 273.3360

EPHEMERIS_TYPE = 0
CLASSIFICATION_TYPE = U
NORAD_CAT_ID   = 68184
ELEMENT_SET_NO = 999
REV_AT_EPOCH   = 471
BSTAR          = .72482E-3
MEAN_MOTION_DOT = .145249E-2
MEAN_MOTION_DDOT = 0

CCSDS_OMM_VERS = 2.0
CREATION_DATE  = 
ORIGINATOR     = 

OBJECT_NAME    = STARLINK-37061
OBJECT_ID      = 2026-050U
CENTER_NAME    = EARTH
REF_FRAME      = TEME
TIME_SYSTEM    = UTC
MEAN_ELEMENT_THEORY = SGP/SGP4

EPOCH          = 2026-04-05T11:31:54.431904
MEAN_MOTION    = 15.80946416
ECCENTRICITY   = .0001164
INCLINATION    = 53.1567
RA_OF_ASC_NODE = 147.4187
ARG_OF_PERICENTER = 109.1696
MEAN_ANOMALY   = 250.9453

EPHEMERIS_TYPE = 0
CLASSIFICATION_TYPE = U
NORAD_CAT_ID   = 68185
ELEMENT_SET_NO = 999
REV_AT_EPOCH   = 471
BSTAR          = .68838E-3
MEAN_MOTION_DOT = .13782E-2
MEAN_MOTION_DDOT = 0

CCSDS_OMM_VERS = 2.0
CREATION_DATE  = 
ORIGINATOR     = 

OBJECT_NAME    = STARLINK-37079
OBJECT_ID      = 2026-050V
CENTER_NAME    = EARTH
REF_FRAME      = TEME
TIME_SYSTEM    = UTC
MEAN_ELEMENT_THEORY = SGP/SGP4

EPOCH          = 2026-04-03T12:28:42.632832
MEAN_MOTION    = 15.80793272
ECCENTRICITY   = .0001136
INCLINATION    = 53.1575
RA_OF_ASC_NODE = 157.2358
ARG_OF_PERICENTER = 74.7271
MEAN_ANOMALY   = 285.3878

EPHEMERIS_TYPE = 0
CLASSIFICATION_TYPE = U
NORAD_CAT_ID   = 68186
ELEMENT_SET_NO = 999
REV_AT_EPOCH   = 440
BSTAR          = .46237E-3
MEAN_MOTION_DOT = .9119E-3
MEAN_MOTION_DDOT = 0

CCSDS_OMM_VERS = 2.0
CREATION_DATE  = 
ORIGINATOR     = 

OBJECT_NAME    = STARLINK-37006
OBJECT_ID      = 2026-050W
CENTER_NAME    = EARTH
REF_FRAME      = TEME
TIME_SYSTEM    = UTC
MEAN_ELEMENT_THEORY = SGP/SGP4

EPOCH          = 2026-04-05T11:29:44.830176
MEAN_MOTION    = 15.80945732
ECCENTRICITY   = .0001063
INCLINATION    = 53.1565
RA_OF_ASC_NODE = 147.4085
ARG_OF_PERICENTER = 90.4644
MEAN_ANOMALY   = 269.6500

EPHEMERIS_TYPE = 0
CLASSIFICATION_TYPE = U
NORAD_CAT_ID   = 68187
ELEMENT_SET_NO = 999
REV_AT_EPOCH   = 471
BSTAR          = .70026E-3
MEAN_MOTION_DOT = .140246E-2
MEAN_MOTION_DDOT = 0

CCSDS_OMM_VERS = 2.0
CREATION_DATE  = 
ORIGINATOR     = 

OBJECT_NAME    = STARLINK-36340
OBJECT_ID      = 2026-050X
CENTER_NAME    = EARTH
REF_FRAME      = TEME
TIME_SYSTEM    = UTC
MEAN_ELEMENT_THEORY = SGP/SGP4

EPOCH          = 2026-04-05T08:25:02.186400
MEAN_MOTION    = 15.82764336
ECCENTRICITY   = .0002341
INCLINATION    = 53.1562
RA_OF_ASC_NODE = 148.0303
ARG_OF_PERICENTER = 63.4768
MEAN_ANOMALY   = 296.6495

EPHEMERIS_TYPE = 0
CLASSIFICATION_TYPE = U
NORAD_CAT_ID   = 68188
ELEMENT_SET_NO = 999
REV_AT_EPOCH   = 459
BSTAR          = .24269E-2
MEAN_MOTION_DOT = .557272E-2
MEAN_MOTION_DDOT = 0

CCSDS_OMM_VERS = 2.0
CREATION_DATE  = 
ORIGINATOR     = 

OBJECT_NAME    = STARLINK-36305
OBJECT_ID      = 2026-050Y
CENTER_NAME    = EARTH
REF_FRAME      = TEME
TIME_SYSTEM    = UTC
MEAN_ELEMENT_THEORY = SGP/SGP4

EPOCH          = 2026-04-05T11:27:35.344224
MEAN_MOTION    = 15.80947116
ECCENTRICITY   = .0001519
INCLINATION    = 53.1564
RA_OF_ASC_NODE = 147.3982
ARG_OF_PERICENTER = 75.4900
MEAN_ANOMALY   = 284.6291

EPHEMERIS_TYPE = 0
CLASSIFICATION_TYPE = U
NORAD_CAT_ID   = 68189
ELEMENT_SET_NO = 999
REV_AT_EPOCH   = 461
BSTAR          = .69926E-3
MEAN_MOTION_DOT = .140053E-2
MEAN_MOTION_DDOT = 0

CCSDS_OMM_VERS = 2.0
CREATION_DATE  = 
ORIGINATOR     = 

OBJECT_NAME    = STARLINK-37071
OBJECT_ID      = 2026-050Z
CENTER_NAME    = EARTH
REF_FRAME      = TEME
TIME_SYSTEM    = UTC
MEAN_ELEMENT_THEORY = SGP/SGP4

EPOCH          = 2026-04-05T11:25:25.482432
MEAN_MOTION    = 15.80987488
ECCENTRICITY   = .0001349
INCLINATION    = 53.1564
RA_OF_ASC_NODE = 147.3880
ARG_OF_PERICENTER = 71.3304
MEAN_ANOMALY   = 288.7865

EPHEMERIS_TYPE = 0
CLASSIFICATION_TYPE = U
NORAD_CAT_ID   = 68190
ELEMENT_SET_NO = 999
REV_AT_EPOCH   = 471
BSTAR          = .11891E-2
MEAN_MOTION_DOT = .241954E-2
MEAN_MOTION_DDOT = 0

